[{"OBJECT_NAME":"STARLINK-3525","OBJECT_ID":"2022-016V","EPOCH":"2026-03-09T22:28:28.708032","MEAN_MOTION":15.08831494,"ECCENTRICITY":0.00013765,"INCLINATION":53.2169,"RA_OF_ASC_NODE":318.025,"ARG_OF_PERICENTER":84.0721,"MEAN_ANOMALY":276.0428,"EPHEMERIS_TYPE":0,"CLASSIFICATION_TYPE":"U","NORAD_CAT_ID":51733,"ELEMENT_SET_NO":999,"REV_AT_EPOCH":22360,"BSTAR":-0.00016468254,"MEAN_MOTION_DOT":-2.907e-5,"MEAN_MOTION_DDOT":0},{"OBJECT_NAME":"CZ-6A DEB","OBJECT_ID":"2024-126C","EPOCH":"2026-03-09T22:45:09.534528","MEAN_MOTION":15.08339588,"ECCENTRICITY":0.00034995,"INCLINATION":97.8272,"RA_OF_ASC_NODE":88.0703,"ARG_OF_PERICENTER":249.9832,"MEAN_ANOMALY":110.1019,"EPHEMERIS_TYPE":0,"CLASSIFICATION_TYPE":"U","NORAD_CAT_ID":60213,"ELEMENT_SET_NO":999,"REV_AT_EPOCH":9177,"BSTAR":0.0010886629,"MEAN_MOTION_DOT":0.00016868,"MEAN_MOTION_DDOT":0}]
